[
    {
        "Altitude(m)": 624792.7447485786,
        "Argument of Periapsis(deg)": 0.0,
        "Eccentricity": 0.0,
        "Inclination(deg)": 60.0,
        "Latitude(deg)": -59.14700473621678,
        "Longitude(deg)": 59.026505365483075,
        "Mean Anomaly(deg)": -98.18179999999998,
        "RAAN(deg)": 265.0,
        "Satellite Name": "Test1 1182",
        "Satellite Number": 1182,
        "Semi-Major Axis(m)": 6980739.136638005,
        "Time(s)": 0
    },
    {
        "Altitude(m)": 624842.1364621812,
        "Argument of Periapsis(deg)": 0.00010418945913296404,
        "Eccentricity": 0.0,
        "Inclination(deg)": 60.0,
        "Latitude(deg)": -59.28908713218185,
        "Longitude(deg)": 60.156007252937606,
        "Mean Anomaly(deg)": -97.56169385453813,
        "RAAN(deg)": 264.99957995086027,
        "Satellite Name": "Test1 1182",
        "Satellite Number": 1182,
        "Semi-Major Axis(m)": 6980739.136638005,
        "Time(s)": 10
    }
]